SAUDISAT 1C (SO-50)     
1 27607U 02058C   26192.83511488  .00000404  00000+0  65677-4 0  9997
2 27607  64.5517  52.7226 0074622 257.8961 101.3778 14.83094671268113
SAUDISAT 2              
1 28371U 04025F   26192.82569430  .00000120  00000+0  37868-4 0  9997
2 28371  98.5518 193.4453 0023900 218.7819 141.1664 14.56697171169330
SAUDISAT 3              
1 31118U 07012B   26192.80737956  .00000110  00000+0  25979-4 0  9996
2 31118  98.1466 143.2258 0015370 144.8972 215.3250 14.71439201 31369
PISAT                   
1 41784U 16059B   26192.52907076  .00000502  00000+0  93078-4 0  9998
2 41784  97.8188 191.9369 0030290 126.0385 234.3635 14.69025621523310
FLYING LAPTOP           
1 42831U 17042G   26193.31410569  .00001958  00000+0  15612-3 0  9992
2 42831  97.4789 347.8994 0019820  41.6471 318.6259 15.01300469490221
SALSAT                  
1 46495U 20068K   26192.54062004  .00004447  00000+0  15528-3 0  9997
2 46495  97.8855 197.0941 0008823 206.5203 153.5586 15.30139435319080
